{
"type": "FeatureCollection",
"name": "fob",
"crs": { "type": "name", "properties": { "name": "urn:ogc:def:crs:OGC:1.3:CRS84" } },
"features": [
{ "type": "Feature", "properties": { "fid": 16, "full_id": "w147129314", "osm_id": "147129314", "osm_type": "way", "material": null, "roof:colour": null, "ramp": null, "handrail": null, "embankment": null, "disused:crossing": null, "crossing:signals": null, "traffic_calming": null, "wheelchair": null, "crossing:island": null, "traffic_signals:vibration": null, "button_operated": null, "traffic_signals:sound": null, "crossing:markings": null, "smoothness": null, "check_date:surface": null, "incline": null, "covered": null, "tactile_paving": null, "kerb": null, "crossing": null, "footway": null, "trail_visibility": null, "name:kn": null, "name:ur": null, "name:pa": null, "brand:wikipedia": null, "brand:wikidata": null, "brand:ur": null, "brand:pa": null, "brand": null, "service": null, "oneway": null, "maxspeed": null, "lanes": null, "cycleway": null, "bridge": null, "tunnel": "yes", "layer": "-1", "width": null, "sidewalk": null, "name:etymology:wikidata": null, "name": null, "lit": null, "horse": null, "surface": "asphalt", "motor_vehicle": null, "highway": "footway", "foot": null, "bicycle": null, "access": null, "b_fid": 1 }, "geometry": { "type": "MultiLineString", "coordinates": [ [ [ 77.6296816, 12.9062469 ], [ 77.62925, 12.9060135 ] ] ] } },
{ "type": "Feature", "properties": { "fid": 58, "full_id": "w259377068", "osm_id": "259377068", "osm_type": "way", "material": null, "roof:colour": null, "ramp": null, "handrail": null, "embankment": null, "disused:crossing": null, "crossing:signals": null, "traffic_calming": null, "wheelchair": null, "crossing:island": null, "traffic_signals:vibration": null, "button_operated": null, "traffic_signals:sound": null, "crossing:markings": null, "smoothness": null, "check_date:surface": null, "incline": null, "covered": null, "tactile_paving": null, "kerb": null, "crossing": null, "footway": null, "trail_visibility": null, "name:kn": null, "name:ur": "سب وے", "name:pa": "ਸਬਵੇਅ", "brand:wikipedia": "en:Subway (restaurant)", "brand:wikidata": "Q244457", "brand:ur": "سب وے", "brand:pa": "ਸਬਵੇਅ", "brand": "Subway", "service": null, "oneway": null, "maxspeed": null, "lanes": null, "cycleway": null, "bridge": null, "tunnel": "yes", "layer": "-1", "width": null, "sidewalk": null, "name:etymology:wikidata": null, "name": "Subway", "lit": null, "horse": null, "surface": null, "motor_vehicle": null, "highway": "footway", "foot": null, "bicycle": null, "access": null, "b_fid": 1 }, "geometry": { "type": "MultiLineString", "coordinates": [ [ [ 77.7502207, 12.785484 ], [ 77.7503994, 12.7858901 ] ] ] } },
{ "type": "Feature", "properties": { "fid": 59, "full_id": "w259377069", "osm_id": "259377069", "osm_type": "way", "material": null, "roof:colour": null, "ramp": null, "handrail": null, "embankment": null, "disused:crossing": null, "crossing:signals": null, "traffic_calming": null, "wheelchair": null, "crossing:island": null, "traffic_signals:vibration": null, "button_operated": null, "traffic_signals:sound": null, "crossing:markings": null, "smoothness": null, "check_date:surface": null, "incline": null, "covered": null, "tactile_paving": null, "kerb": null, "crossing": null, "footway": null, "trail_visibility": null, "name:kn": null, "name:ur": null, "name:pa": null, "brand:wikipedia": null, "brand:wikidata": null, "brand:ur": null, "brand:pa": null, "brand": null, "service": null, "oneway": null, "maxspeed": null, "lanes": null, "cycleway": null, "bridge": null, "tunnel": "yes", "layer": "-1", "width": null, "sidewalk": null, "name:etymology:wikidata": null, "name": null, "lit": null, "horse": null, "surface": "asphalt", "motor_vehicle": null, "highway": "footway", "foot": null, "bicycle": null, "access": null, "b_fid": 1 }, "geometry": { "type": "MultiLineString", "coordinates": [ [ [ 77.6787535, 12.8363306 ], [ 77.6792981, 12.8365426 ] ] ] } },
{ "type": "Feature", "properties": { "fid": 60, "full_id": "w259377070", "osm_id": "259377070", "osm_type": "way", "material": null, "roof:colour": null, "ramp": null, "handrail": null, "embankment": null, "disused:crossing": null, "crossing:signals": null, "traffic_calming": null, "wheelchair": null, "crossing:island": null, "traffic_signals:vibration": null, "button_operated": null, "traffic_signals:sound": null, "crossing:markings": null, "smoothness": null, "check_date:surface": null, "incline": null, "covered": null, "tactile_paving": null, "kerb": null, "crossing": null, "footway": null, "trail_visibility": null, "name:kn": "ಸಬ್‌ವೇ", "name:ur": "سب وے", "name:pa": "ਸਬਵੇਅ", "brand:wikipedia": "en:Subway (restaurant)", "brand:wikidata": "Q244457", "brand:ur": "سب وے", "brand:pa": "ਸਬਵੇਅ", "brand": "Subway", "service": null, "oneway": null, "maxspeed": null, "lanes": null, "cycleway": null, "bridge": null, "tunnel": "yes", "layer": "-1", "width": null, "sidewalk": null, "name:etymology:wikidata": null, "name": "Subway", "lit": null, "horse": null, "surface": null, "motor_vehicle": null, "highway": "footway", "foot": null, "bicycle": null, "access": null, "b_fid": 1 }, "geometry": { "type": "MultiLineString", "coordinates": [ [ [ 77.6823556, 12.8265228 ], [ 77.6827466, 12.8267203 ] ] ] } },
{ "type": "Feature", "properties": { "fid": 148, "full_id": "w891226803", "osm_id": "891226803", "osm_type": "way", "material": null, "roof:colour": null, "ramp": null, "handrail": null, "embankment": null, "disused:crossing": null, "crossing:signals": null, "traffic_calming": null, "wheelchair": null, "crossing:island": null, "traffic_signals:vibration": null, "button_operated": null, "traffic_signals:sound": null, "crossing:markings": null, "smoothness": null, "check_date:surface": null, "incline": null, "covered": null, "tactile_paving": null, "kerb": null, "crossing": null, "footway": null, "trail_visibility": null, "name:kn": null, "name:ur": null, "name:pa": null, "brand:wikipedia": null, "brand:wikidata": null, "brand:ur": null, "brand:pa": null, "brand": null, "service": null, "oneway": null, "maxspeed": null, "lanes": null, "cycleway": null, "bridge": null, "tunnel": "yes", "layer": "-1", "width": null, "sidewalk": null, "name:etymology:wikidata": null, "name": null, "lit": null, "horse": null, "surface": null, "motor_vehicle": null, "highway": "footway", "foot": null, "bicycle": null, "access": null, "b_fid": 1 }, "geometry": { "type": "MultiLineString", "coordinates": [ [ [ 77.6877983, 12.8205962 ], [ 77.6874518, 12.8203642 ] ] ] } },
{ "type": "Feature", "properties": { "fid": 255, "full_id": "w1101690297", "osm_id": "1101690297", "osm_type": "way", "material": null, "roof:colour": null, "ramp": null, "handrail": null, "embankment": null, "disused:crossing": null, "crossing:signals": null, "traffic_calming": null, "wheelchair": null, "crossing:island": null, "traffic_signals:vibration": null, "button_operated": null, "traffic_signals:sound": null, "crossing:markings": null, "smoothness": null, "check_date:surface": null, "incline": null, "covered": null, "tactile_paving": null, "kerb": null, "crossing": null, "footway": null, "trail_visibility": null, "name:kn": null, "name:ur": null, "name:pa": null, "brand:wikipedia": null, "brand:wikidata": null, "brand:ur": null, "brand:pa": null, "brand": null, "service": null, "oneway": null, "maxspeed": null, "lanes": null, "cycleway": null, "bridge": "yes", "tunnel": null, "layer": "1", "width": null, "sidewalk": null, "name:etymology:wikidata": null, "name": null, "lit": null, "horse": null, "surface": "metal", "motor_vehicle": null, "highway": "footway", "foot": null, "bicycle": null, "access": null, "b_fid": 1 }, "geometry": { "type": "MultiLineString", "coordinates": [ [ [ 77.6257335, 12.9119566 ], [ 77.625992, 12.9121168 ] ] ] } },
{ "type": "Feature", "properties": { "fid": 353, "full_id": "w1117405972", "osm_id": "1117405972", "osm_type": "way", "material": null, "roof:colour": null, "ramp": null, "handrail": null, "embankment": null, "disused:crossing": null, "crossing:signals": null, "traffic_calming": null, "wheelchair": null, "crossing:island": null, "traffic_signals:vibration": null, "button_operated": null, "traffic_signals:sound": null, "crossing:markings": null, "smoothness": null, "check_date:surface": null, "incline": null, "covered": null, "tactile_paving": null, "kerb": null, "crossing": null, "footway": null, "trail_visibility": null, "name:kn": null, "name:ur": null, "name:pa": null, "brand:wikipedia": null, "brand:wikidata": null, "brand:ur": null, "brand:pa": null, "brand": null, "service": null, "oneway": null, "maxspeed": null, "lanes": null, "cycleway": null, "bridge": "viaduct", "tunnel": null, "layer": "1", "width": null, "sidewalk": null, "name:etymology:wikidata": null, "name": null, "lit": null, "horse": null, "surface": "metal", "motor_vehicle": null, "highway": "footway", "foot": null, "bicycle": null, "access": null, "b_fid": 1 }, "geometry": { "type": "MultiLineString", "coordinates": [ [ [ 77.671217, 12.8478603 ], [ 77.6708969, 12.8472666 ], [ 77.6708986, 12.8470127 ] ] ] } },
{ "type": "Feature", "properties": { "fid": 374, "full_id": "w1150491902", "osm_id": "1150491902", "osm_type": "way", "material": null, "roof:colour": null, "ramp": null, "handrail": null, "embankment": null, "disused:crossing": null, "crossing:signals": null, "traffic_calming": null, "wheelchair": null, "crossing:island": null, "traffic_signals:vibration": null, "button_operated": null, "traffic_signals:sound": null, "crossing:markings": null, "smoothness": null, "check_date:surface": null, "incline": null, "covered": null, "tactile_paving": null, "kerb": null, "crossing": null, "footway": null, "trail_visibility": null, "name:kn": null, "name:ur": null, "name:pa": null, "brand:wikipedia": null, "brand:wikidata": null, "brand:ur": null, "brand:pa": null, "brand": null, "service": null, "oneway": null, "maxspeed": null, "lanes": null, "cycleway": null, "bridge": "yes", "tunnel": null, "layer": "1", "width": null, "sidewalk": null, "name:etymology:wikidata": null, "name": null, "lit": null, "horse": null, "surface": "metal", "motor_vehicle": null, "highway": "footway", "foot": null, "bicycle": null, "access": null, "b_fid": 1 }, "geometry": { "type": "MultiLineString", "coordinates": [ [ [ 77.6955602, 12.8103684 ], [ 77.6959433, 12.8106515 ] ] ] } },
{ "type": "Feature", "properties": { "fid": 619, "full_id": "w1240080119", "osm_id": "1240080119", "osm_type": "way", "material": null, "roof:colour": null, "ramp": null, "handrail": null, "embankment": null, "disused:crossing": null, "crossing:signals": null, "traffic_calming": null, "wheelchair": null, "crossing:island": null, "traffic_signals:vibration": null, "button_operated": null, "traffic_signals:sound": null, "crossing:markings": null, "smoothness": null, "check_date:surface": null, "incline": null, "covered": null, "tactile_paving": null, "kerb": null, "crossing": null, "footway": null, "trail_visibility": null, "name:kn": null, "name:ur": null, "name:pa": null, "brand:wikipedia": null, "brand:wikidata": null, "brand:ur": null, "brand:pa": null, "brand": null, "service": null, "oneway": null, "maxspeed": null, "lanes": null, "cycleway": null, "bridge": "yes", "tunnel": null, "layer": "1", "width": null, "sidewalk": null, "name:etymology:wikidata": null, "name": null, "lit": null, "horse": null, "surface": null, "motor_vehicle": null, "highway": "footway", "foot": null, "bicycle": null, "access": null, "b_fid": 1 }, "geometry": { "type": "MultiLineString", "coordinates": [ [ [ 77.6781478, 12.8389433 ], [ 77.6781814, 12.8388991 ], [ 77.677917, 12.8385466 ], [ 77.6778814, 12.8385753 ] ] ] } },
{ "type": "Feature", "properties": { "fid": 621, "full_id": "w1240101156", "osm_id": "1240101156", "osm_type": "way", "material": null, "roof:colour": null, "ramp": null, "handrail": null, "embankment": null, "disused:crossing": null, "crossing:signals": null, "traffic_calming": null, "wheelchair": null, "crossing:island": null, "traffic_signals:vibration": null, "button_operated": null, "traffic_signals:sound": null, "crossing:markings": null, "smoothness": null, "check_date:surface": null, "incline": null, "covered": null, "tactile_paving": null, "kerb": null, "crossing": null, "footway": null, "trail_visibility": null, "name:kn": null, "name:ur": null, "name:pa": null, "brand:wikipedia": null, "brand:wikidata": null, "brand:ur": null, "brand:pa": null, "brand": null, "service": null, "oneway": null, "maxspeed": null, "lanes": null, "cycleway": null, "bridge": "yes", "tunnel": null, "layer": "1", "width": null, "sidewalk": null, "name:etymology:wikidata": null, "name": null, "lit": null, "horse": null, "surface": null, "motor_vehicle": null, "highway": "footway", "foot": null, "bicycle": null, "access": null, "b_fid": 1 }, "geometry": { "type": "MultiLineString", "coordinates": [ [ [ 77.6320059, 12.902567 ], [ 77.6314707, 12.9022481 ], [ 77.6315367, 12.9021429 ] ] ] } },
{ "type": "Feature", "properties": { "fid": 622, "full_id": "w1240101158", "osm_id": "1240101158", "osm_type": "way", "material": null, "roof:colour": null, "ramp": null, "handrail": null, "embankment": null, "disused:crossing": null, "crossing:signals": null, "traffic_calming": null, "wheelchair": null, "crossing:island": null, "traffic_signals:vibration": null, "button_operated": null, "traffic_signals:sound": null, "crossing:markings": null, "smoothness": null, "check_date:surface": null, "incline": null, "covered": null, "tactile_paving": null, "kerb": null, "crossing": null, "footway": null, "trail_visibility": null, "name:kn": null, "name:ur": null, "name:pa": null, "brand:wikipedia": null, "brand:wikidata": null, "brand:ur": null, "brand:pa": null, "brand": null, "service": null, "oneway": null, "maxspeed": null, "lanes": null, "cycleway": null, "bridge": "yes", "tunnel": null, "layer": "1", "width": null, "sidewalk": null, "name:etymology:wikidata": null, "name": null, "lit": null, "horse": null, "surface": null, "motor_vehicle": null, "highway": "footway", "foot": null, "bicycle": null, "access": null, "b_fid": 1 }, "geometry": { "type": "MultiLineString", "coordinates": [ [ [ 77.6448548, 12.8816681 ], [ 77.6443188, 12.8813594 ] ] ] } },
{ "type": "Feature", "properties": { "fid": 626, "full_id": "w1240101163", "osm_id": "1240101163", "osm_type": "way", "material": null, "roof:colour": null, "ramp": null, "handrail": null, "embankment": null, "disused:crossing": null, "crossing:signals": null, "traffic_calming": null, "wheelchair": null, "crossing:island": null, "traffic_signals:vibration": null, "button_operated": null, "traffic_signals:sound": null, "crossing:markings": null, "smoothness": null, "check_date:surface": null, "incline": null, "covered": null, "tactile_paving": null, "kerb": null, "crossing": null, "footway": null, "trail_visibility": null, "name:kn": null, "name:ur": null, "name:pa": null, "brand:wikipedia": null, "brand:wikidata": null, "brand:ur": null, "brand:pa": null, "brand": null, "service": null, "oneway": null, "maxspeed": null, "lanes": null, "cycleway": null, "bridge": "yes", "tunnel": null, "layer": "1", "width": null, "sidewalk": null, "name:etymology:wikidata": null, "name": null, "lit": null, "horse": null, "surface": null, "motor_vehicle": null, "highway": "footway", "foot": null, "bicycle": null, "access": null, "b_fid": 1 }, "geometry": { "type": "MultiLineString", "coordinates": [ [ [ 77.6534329, 12.8702689 ], [ 77.6528203, 12.8700553 ], [ 77.6527807, 12.8700266 ], [ 77.6527512, 12.8700749 ], [ 77.6527176, 12.8702321 ] ] ] } },
{ "type": "Feature", "properties": { "fid": 627, "full_id": "w1240101170", "osm_id": "1240101170", "osm_type": "way", "material": null, "roof:colour": null, "ramp": null, "handrail": null, "embankment": null, "disused:crossing": null, "crossing:signals": null, "traffic_calming": null, "wheelchair": null, "crossing:island": null, "traffic_signals:vibration": null, "button_operated": null, "traffic_signals:sound": null, "crossing:markings": null, "smoothness": null, "check_date:surface": null, "incline": null, "covered": null, "tactile_paving": null, "kerb": null, "crossing": null, "footway": null, "trail_visibility": null, "name:kn": null, "name:ur": null, "name:pa": null, "brand:wikipedia": null, "brand:wikidata": null, "brand:ur": null, "brand:pa": null, "brand": null, "service": null, "oneway": null, "maxspeed": null, "lanes": null, "cycleway": null, "bridge": "yes", "tunnel": null, "layer": "1", "width": null, "sidewalk": null, "name:etymology:wikidata": null, "name": null, "lit": null, "horse": null, "surface": null, "motor_vehicle": null, "highway": "footway", "foot": null, "bicycle": null, "access": null, "b_fid": 1 }, "geometry": { "type": "MultiLineString", "coordinates": [ [ [ 77.6585941, 12.8627512 ], [ 77.6591208, 12.8631513 ] ] ] } },
{ "type": "Feature", "properties": { "fid": 630, "full_id": "w1240101176", "osm_id": "1240101176", "osm_type": "way", "material": null, "roof:colour": null, "ramp": null, "handrail": null, "embankment": null, "disused:crossing": null, "crossing:signals": null, "traffic_calming": null, "wheelchair": null, "crossing:island": null, "traffic_signals:vibration": null, "button_operated": null, "traffic_signals:sound": null, "crossing:markings": null, "smoothness": null, "check_date:surface": null, "incline": null, "covered": null, "tactile_paving": null, "kerb": null, "crossing": null, "footway": null, "trail_visibility": null, "name:kn": null, "name:ur": null, "name:pa": null, "brand:wikipedia": null, "brand:wikidata": null, "brand:ur": null, "brand:pa": null, "brand": null, "service": null, "oneway": null, "maxspeed": null, "lanes": null, "cycleway": null, "bridge": "yes", "tunnel": null, "layer": "1", "width": null, "sidewalk": null, "name:etymology:wikidata": null, "name": null, "lit": null, "horse": null, "surface": null, "motor_vehicle": null, "highway": "footway", "foot": null, "bicycle": null, "access": null, "b_fid": 1 }, "geometry": { "type": "MultiLineString", "coordinates": [ [ [ 77.6644691, 12.8563735 ], [ 77.6639527, 12.8559437 ], [ 77.6639462, 12.8559383 ] ] ] } },
{ "type": "Feature", "properties": { "fid": 632, "full_id": "w1240101181", "osm_id": "1240101181", "osm_type": "way", "material": null, "roof:colour": null, "ramp": null, "handrail": null, "embankment": null, "disused:crossing": null, "crossing:signals": null, "traffic_calming": null, "wheelchair": null, "crossing:island": null, "traffic_signals:vibration": null, "button_operated": null, "traffic_signals:sound": null, "crossing:markings": null, "smoothness": null, "check_date:surface": null, "incline": null, "covered": null, "tactile_paving": null, "kerb": null, "crossing": null, "footway": null, "trail_visibility": null, "name:kn": null, "name:ur": null, "name:pa": null, "brand:wikipedia": null, "brand:wikidata": null, "brand:ur": null, "brand:pa": null, "brand": null, "service": null, "oneway": null, "maxspeed": null, "lanes": null, "cycleway": null, "bridge": "yes", "tunnel": null, "layer": "1", "width": null, "sidewalk": null, "name:etymology:wikidata": null, "name": null, "lit": null, "horse": null, "surface": "metal", "motor_vehicle": null, "highway": "footway", "foot": null, "bicycle": null, "access": null, "b_fid": 1 }, "geometry": { "type": "MultiLineString", "coordinates": [ [ [ 77.6804461, 12.833518 ], [ 77.6800041, 12.8333806 ] ] ] } },
{ "type": "Feature", "properties": { "fid": 694, "full_id": "w1261916604", "osm_id": "1261916604", "osm_type": "way", "material": null, "roof:colour": null, "ramp": null, "handrail": null, "embankment": null, "disused:crossing": null, "crossing:signals": null, "traffic_calming": null, "wheelchair": null, "crossing:island": null, "traffic_signals:vibration": null, "button_operated": null, "traffic_signals:sound": null, "crossing:markings": "ladder", "smoothness": null, "check_date:surface": null, "incline": null, "covered": null, "tactile_paving": null, "kerb": null, "crossing": "uncontrolled", "footway": "crossing", "trail_visibility": null, "name:kn": null, "name:ur": null, "name:pa": null, "brand:wikipedia": null, "brand:wikidata": null, "brand:ur": null, "brand:pa": null, "brand": null, "service": null, "oneway": null, "maxspeed": null, "lanes": null, "cycleway": null, "bridge": null, "tunnel": null, "layer": null, "width": null, "sidewalk": null, "name:etymology:wikidata": null, "name": null, "lit": null, "horse": null, "surface": "asphalt", "motor_vehicle": null, "highway": "footway", "foot": null, "bicycle": null, "access": null, "b_fid": 1 }, "geometry": { "type": "MultiLineString", "coordinates": [ [ [ 77.6488006, 12.8747888 ], [ 77.6488061, 12.8747613 ], [ 77.6488193, 12.8746967 ], [ 77.6488274, 12.8746567 ] ] ] } },
{ "type": "Feature", "properties": { "fid": 873, "full_id": "w1319177316", "osm_id": "1319177316", "osm_type": "way", "material": null, "roof:colour": null, "ramp": null, "handrail": null, "embankment": null, "disused:crossing": null, "crossing:signals": null, "traffic_calming": null, "wheelchair": null, "crossing:island": null, "traffic_signals:vibration": null, "button_operated": null, "traffic_signals:sound": null, "crossing:markings": null, "smoothness": null, "check_date:surface": null, "incline": null, "covered": "yes", "tactile_paving": null, "kerb": null, "crossing": null, "footway": null, "trail_visibility": null, "name:kn": null, "name:ur": null, "name:pa": null, "brand:wikipedia": null, "brand:wikidata": null, "brand:ur": null, "brand:pa": null, "brand": null, "service": null, "oneway": null, "maxspeed": null, "lanes": null, "cycleway": null, "bridge": "yes", "tunnel": null, "layer": "1", "width": null, "sidewalk": null, "name:etymology:wikidata": null, "name": null, "lit": null, "horse": null, "surface": null, "motor_vehicle": null, "highway": "footway", "foot": null, "bicycle": null, "access": null, "b_fid": 1 }, "geometry": { "type": "MultiLineString", "coordinates": [ [ [ 77.7222689, 12.7939919 ], [ 77.7221855, 12.7936799 ] ] ] } },
{ "type": "Feature", "properties": { "fid": 874, "full_id": "w1319177318", "osm_id": "1319177318", "osm_type": "way", "material": null, "roof:colour": null, "ramp": null, "handrail": null, "embankment": null, "disused:crossing": null, "crossing:signals": null, "traffic_calming": null, "wheelchair": null, "crossing:island": null, "traffic_signals:vibration": null, "button_operated": null, "traffic_signals:sound": null, "crossing:markings": "no", "smoothness": null, "check_date:surface": null, "incline": null, "covered": null, "tactile_paving": null, "kerb": null, "crossing": "unmarked", "footway": "crossing", "trail_visibility": null, "name:kn": null, "name:ur": null, "name:pa": null, "brand:wikipedia": null, "brand:wikidata": null, "brand:ur": null, "brand:pa": null, "brand": null, "service": null, "oneway": null, "maxspeed": null, "lanes": null, "cycleway": null, "bridge": null, "tunnel": null, "layer": null, "width": null, "sidewalk": null, "name:etymology:wikidata": null, "name": null, "lit": null, "horse": null, "surface": null, "motor_vehicle": null, "highway": "footway", "foot": null, "bicycle": null, "access": null, "b_fid": 1 }, "geometry": { "type": "MultiLineString", "coordinates": [ [ [ 77.7221002, 12.7941141 ], [ 77.722093, 12.794088 ], [ 77.7220878, 12.794069 ] ] ] } },
{ "type": "Feature", "properties": { "fid": 876, "full_id": "w1319177320", "osm_id": "1319177320", "osm_type": "way", "material": null, "roof:colour": null, "ramp": null, "handrail": null, "embankment": null, "disused:crossing": null, "crossing:signals": null, "traffic_calming": null, "wheelchair": null, "crossing:island": null, "traffic_signals:vibration": null, "button_operated": null, "traffic_signals:sound": null, "crossing:markings": null, "smoothness": null, "check_date:surface": null, "incline": null, "covered": null, "tactile_paving": null, "kerb": null, "crossing": null, "footway": null, "trail_visibility": null, "name:kn": null, "name:ur": null, "name:pa": null, "brand:wikipedia": null, "brand:wikidata": null, "brand:ur": null, "brand:pa": null, "brand": null, "service": null, "oneway": null, "maxspeed": null, "lanes": null, "cycleway": null, "bridge": null, "tunnel": null, "layer": null, "width": null, "sidewalk": null, "name:etymology:wikidata": null, "name": null, "lit": null, "horse": null, "surface": null, "motor_vehicle": null, "highway": "footway", "foot": null, "bicycle": null, "access": null, "b_fid": 1 }, "geometry": { "type": "MultiLineString", "coordinates": [ [ [ 77.721992, 12.7937205 ], [ 77.7219896, 12.7937024 ] ] ] } },
{ "type": "Feature", "properties": { "fid": 887, "full_id": "w1347472884", "osm_id": "1347472884", "osm_type": "way", "material": null, "roof:colour": null, "ramp": null, "handrail": null, "embankment": null, "disused:crossing": null, "crossing:signals": null, "traffic_calming": null, "wheelchair": null, "crossing:island": null, "traffic_signals:vibration": null, "button_operated": null, "traffic_signals:sound": null, "crossing:markings": "zebra", "smoothness": null, "check_date:surface": null, "incline": null, "covered": null, "tactile_paving": null, "kerb": null, "crossing": "uncontrolled", "footway": "crossing", "trail_visibility": null, "name:kn": null, "name:ur": null, "name:pa": null, "brand:wikipedia": null, "brand:wikidata": null, "brand:ur": null, "brand:pa": null, "brand": null, "service": null, "oneway": null, "maxspeed": null, "lanes": null, "cycleway": null, "bridge": null, "tunnel": null, "layer": null, "width": null, "sidewalk": null, "name:etymology:wikidata": null, "name": null, "lit": null, "horse": "yes", "surface": "asphalt", "motor_vehicle": null, "highway": "footway", "foot": "yes", "bicycle": "no", "access": "no", "b_fid": 1 }, "geometry": { "type": "MultiLineString", "coordinates": [ [ [ 77.6290118, 12.9072859 ], [ 77.6289933, 12.907276 ], [ 77.6289241, 12.9072388 ], [ 77.6287431, 12.9071417 ], [ 77.6286954, 12.9071161 ], [ 77.6285949, 12.9070621 ] ] ] } },
{ "type": "Feature", "properties": { "fid": 892, "full_id": "w1349555581", "osm_id": "1349555581", "osm_type": "way", "material": null, "roof:colour": null, "ramp": null, "handrail": null, "embankment": null, "disused:crossing": null, "crossing:signals": null, "traffic_calming": null, "wheelchair": null, "crossing:island": null, "traffic_signals:vibration": null, "button_operated": null, "traffic_signals:sound": null, "crossing:markings": null, "smoothness": null, "check_date:surface": null, "incline": null, "covered": null, "tactile_paving": null, "kerb": null, "crossing": null, "footway": null, "trail_visibility": null, "name:kn": null, "name:ur": null, "name:pa": null, "brand:wikipedia": null, "brand:wikidata": null, "brand:ur": null, "brand:pa": null, "brand": null, "service": null, "oneway": null, "maxspeed": null, "lanes": null, "cycleway": null, "bridge": "yes", "tunnel": null, "layer": "1", "width": null, "sidewalk": null, "name:etymology:wikidata": null, "name": null, "lit": null, "horse": null, "surface": "paving_stones", "motor_vehicle": null, "highway": "footway", "foot": null, "bicycle": null, "access": null, "b_fid": 1 }, "geometry": { "type": "MultiLineString", "coordinates": [ [ [ 77.729457, 12.7921574 ], [ 77.7293473, 12.7917854 ] ] ] } },
{ "type": "Feature", "properties": { "fid": 895, "full_id": "w1349555586", "osm_id": "1349555586", "osm_type": "way", "material": null, "roof:colour": null, "ramp": null, "handrail": null, "embankment": null, "disused:crossing": null, "crossing:signals": null, "traffic_calming": null, "wheelchair": null, "crossing:island": null, "traffic_signals:vibration": null, "button_operated": null, "traffic_signals:sound": null, "crossing:markings": null, "smoothness": null, "check_date:surface": null, "incline": null, "covered": null, "tactile_paving": null, "kerb": null, "crossing": null, "footway": null, "trail_visibility": null, "name:kn": null, "name:ur": null, "name:pa": null, "brand:wikipedia": null, "brand:wikidata": null, "brand:ur": null, "brand:pa": null, "brand": null, "service": null, "oneway": null, "maxspeed": null, "lanes": null, "cycleway": null, "bridge": "yes", "tunnel": null, "layer": "1", "width": null, "sidewalk": null, "name:etymology:wikidata": null, "name": null, "lit": null, "horse": null, "surface": null, "motor_vehicle": null, "highway": "footway", "foot": null, "bicycle": null, "access": null, "b_fid": 1 }, "geometry": { "type": "MultiLineString", "coordinates": [ [ [ 77.7375922, 12.7875263 ], [ 77.7377719, 12.7879475 ] ] ] } },
{ "type": "Feature", "properties": { "fid": 977, "full_id": "w1422247272", "osm_id": "1422247272", "osm_type": "way", "material": null, "roof:colour": null, "ramp": null, "handrail": null, "embankment": null, "disused:crossing": null, "crossing:signals": null, "traffic_calming": null, "wheelchair": null, "crossing:island": null, "traffic_signals:vibration": null, "button_operated": null, "traffic_signals:sound": null, "crossing:markings": null, "smoothness": null, "check_date:surface": null, "incline": null, "covered": null, "tactile_paving": null, "kerb": null, "crossing": null, "footway": null, "trail_visibility": null, "name:kn": null, "name:ur": null, "name:pa": null, "brand:wikipedia": null, "brand:wikidata": null, "brand:ur": null, "brand:pa": null, "brand": null, "service": null, "oneway": null, "maxspeed": null, "lanes": null, "cycleway": null, "bridge": null, "tunnel": "yes", "layer": "-1", "width": null, "sidewalk": null, "name:etymology:wikidata": null, "name": null, "lit": null, "horse": null, "surface": null, "motor_vehicle": "no", "highway": "footway", "foot": null, "bicycle": "no", "access": "yes", "b_fid": 1 }, "geometry": { "type": "MultiLineString", "coordinates": [ [ [ 77.6402438, 12.8890814 ], [ 77.6398955, 12.8888583 ] ] ] } },
{ "type": "Feature", "properties": { "fid": 989, "full_id": "w1422247351", "osm_id": "1422247351", "osm_type": "way", "material": null, "roof:colour": null, "ramp": null, "handrail": null, "embankment": null, "disused:crossing": null, "crossing:signals": null, "traffic_calming": null, "wheelchair": null, "crossing:island": null, "traffic_signals:vibration": null, "button_operated": null, "traffic_signals:sound": null, "crossing:markings": null, "smoothness": null, "check_date:surface": null, "incline": null, "covered": null, "tactile_paving": null, "kerb": null, "crossing": null, "footway": null, "trail_visibility": null, "name:kn": null, "name:ur": null, "name:pa": null, "brand:wikipedia": null, "brand:wikidata": null, "brand:ur": null, "brand:pa": null, "brand": null, "service": null, "oneway": null, "maxspeed": null, "lanes": null, "cycleway": null, "bridge": "yes", "tunnel": null, "layer": "1", "width": null, "sidewalk": null, "name:etymology:wikidata": null, "name": null, "lit": null, "horse": null, "surface": null, "motor_vehicle": null, "highway": "footway", "foot": null, "bicycle": null, "access": null, "b_fid": 1 }, "geometry": { "type": "MultiLineString", "coordinates": [ [ [ 77.6639527, 12.8559437 ], [ 77.6639029, 12.8559991 ] ] ] } },
{ "type": "Feature", "properties": { "fid": 1003, "full_id": "w1422507947", "osm_id": "1422507947", "osm_type": "way", "material": null, "roof:colour": null, "ramp": null, "handrail": null, "embankment": null, "disused:crossing": null, "crossing:signals": null, "traffic_calming": null, "wheelchair": null, "crossing:island": null, "traffic_signals:vibration": null, "button_operated": null, "traffic_signals:sound": null, "crossing:markings": null, "smoothness": null, "check_date:surface": null, "incline": null, "covered": null, "tactile_paving": null, "kerb": null, "crossing": null, "footway": null, "trail_visibility": null, "name:kn": null, "name:ur": null, "name:pa": null, "brand:wikipedia": null, "brand:wikidata": null, "brand:ur": null, "brand:pa": null, "brand": null, "service": null, "oneway": null, "maxspeed": null, "lanes": null, "cycleway": null, "bridge": null, "tunnel": null, "layer": null, "width": null, "sidewalk": null, "name:etymology:wikidata": null, "name": null, "lit": null, "horse": null, "surface": null, "motor_vehicle": null, "highway": "footway", "foot": null, "bicycle": null, "access": null, "b_fid": 1 }, "geometry": { "type": "MultiLineString", "coordinates": [ [ [ 77.670902, 12.8470325 ], [ 77.6709054, 12.8470271 ] ] ] } }
]
}
